[
  {
    "OBJECT_NAME": "STARLINK-3846",
    "OBJECT_ID": "22052BB",
    "EPOCH": "2025-11-12T08:41:25.677600",
    "MEAN_MOTION": 16.21781719,
    "ECCENTRICITY": 0.0001131,
    "INCLINATION": 53.2073,
    "RA_OF_ASC_NODE": 46.8452,
    "ARG_OF_PERICENTER": 9.3062,
    "MEAN_ANOMALY": 350.8,
    "EPHEMERIS_TYPE": 0,
    "CLASSIFICATION_TYPE": "U",
    "NORAD_CAT_ID": 52647,
    "ELEMENT_SET_NO": 999,
    "REV_AT_EPOCH": 19369,
    "BSTAR": 0.0011396000000000002,
    "MEAN_MOTION_DOT": 0.02600661,
    "MEAN_MOTION_DDOT": 1.1857e-05,
    "TLE_LINE1": "1 52647U 22052BB  25316.36210275  .02600661  11857-4  11396-2 0  9997",
    "TLE_LINE2": "2 52647  53.2073  46.8452 0001131   9.3062 350.8000 16.21781719193698",
    "COMMENT": "Grouped by shell and plane from TLE"
  }
]